SL-4 R/B                
1 39679U 14021B   26046.48283047  .00014673  00000+0  33107-3 0  9993
2 39679  51.6064  85.5494 0098921  22.0554 338.4641 15.38429127652857
ALOS-2                  
1 39766U 14029A   26046.60293799  .00000196  00000+0  33158-4 0  9999
2 39766  97.9211 145.5190 0001565 103.0218 257.1168 14.79458216633604
YAOGAN-29               
1 41038U 15069A   26046.59593995  .00000234  00000+0  35544-4 0  9992
2 41038  98.0173  74.9644 0002857  72.0732 288.0792 14.82969597552607
ASTRO-H (HITOMI)        
1 41337U 16012A   26046.48845408  .00004240  00000+0  24981-3 0  9993
2 41337  30.9991 139.7977 0009818 109.7922 250.3776 15.09842235548871
HXMT (HUIYAN)           
1 42758U 17034A   26046.59318836  .00007535  00000+0  37974-3 0  9994
2 42758  43.0143 139.4919 0030563  95.1060 265.3277 15.17175208479185
CZ-2C R/B               
1 43521U 18054D   26046.56407516  .00573997  14777-3  92447-3 0  9993
2 43521  35.1281  94.4360 0011670  94.0221 266.1855 16.02326119425348
H-2A R/B                
1 43682U 18084L   26046.52306983  .00024337  00000+0  59701-3 0  9991
2 43682  98.8755 259.1898 0026358  99.6519 260.7702 15.40359905402362
SAOCOM 1B               
1 46265U 20059A   26046.64828999 -.00000030  00000+0  28460-5 0  9990
2 46265  97.8871 234.2306 0001456  85.2007 274.9373 14.82145067295484
CSS (TIANHE)            
1 48274U 21035A   26046.50323910  .00030755  00000+0  37696-3 0  9990
2 48274  41.4685 343.0582 0004073 103.9215 256.2076 15.59671099274143
COSMOS 2550             
1 48865U 21056A   26045.89030187 -.00000042  00000+0  45523-5 0  9998
2 48865  67.1422 109.8973 0008401 269.4635  90.5557 15.33828936259960
CZ-2C R/B               
1 52794U 22058K   26046.25511266  .00037013  00000+0  57286-3 0  9994
2 52794  50.1883  73.5485 0042144 105.3301 255.2332 15.52620882206643
