CCSDS_OMM_VERS = 2.0
CREATION_DATE  = 
ORIGINATOR     = 

OBJECT_NAME    = SL-4 R/B
OBJECT_ID      = 2014-021B
CENTER_NAME    = EARTH
REF_FRAME      = TEME
TIME_SYSTEM    = UTC
MEAN_ELEMENT_THEORY = SGP/SGP4

EPOCH          = 2026-02-15T11:35:16.552608
MEAN_MOTION    = 15.38429127
ECCENTRICITY   = .00989213
INCLINATION    = 51.6064
RA_OF_ASC_NODE = 85.5494
ARG_OF_PERICENTER = 22.0554
MEAN_ANOMALY   = 338.4641

EPHEMERIS_TYPE = 0
CLASSIFICATION_TYPE = U
NORAD_CAT_ID   = 39679
ELEMENT_SET_NO = 999
REV_AT_EPOCH   = 65285
BSTAR          = .33107081E-3
MEAN_MOTION_DOT = .14673E-3
MEAN_MOTION_DDOT = 0

CCSDS_OMM_VERS = 2.0
CREATION_DATE  = 
ORIGINATOR     = 

OBJECT_NAME    = ALOS-2
OBJECT_ID      = 2014-029A
CENTER_NAME    = EARTH
REF_FRAME      = TEME
TIME_SYSTEM    = UTC
MEAN_ELEMENT_THEORY = SGP/SGP4

EPOCH          = 2026-02-15T14:28:13.842336
MEAN_MOTION    = 14.79458216
ECCENTRICITY   = .00015651
INCLINATION    = 97.9211
RA_OF_ASC_NODE = 145.5190
ARG_OF_PERICENTER = 103.0218
MEAN_ANOMALY   = 257.1168

EPHEMERIS_TYPE = 0
CLASSIFICATION_TYPE = U
NORAD_CAT_ID   = 39766
ELEMENT_SET_NO = 999
REV_AT_EPOCH   = 63360
BSTAR          = .33157791E-4
MEAN_MOTION_DOT = .196E-5
MEAN_MOTION_DDOT = 0

CCSDS_OMM_VERS = 2.0
CREATION_DATE  = 
ORIGINATOR     = 

OBJECT_NAME    = YAOGAN-29
OBJECT_ID      = 2015-069A
CENTER_NAME    = EARTH
REF_FRAME      = TEME
TIME_SYSTEM    = UTC
MEAN_ELEMENT_THEORY = SGP/SGP4

EPOCH          = 2026-02-15T14:18:09.211680
MEAN_MOTION    = 14.82969597
ECCENTRICITY   = .00028574
INCLINATION    = 98.0173
RA_OF_ASC_NODE = 74.9644
ARG_OF_PERICENTER = 72.0732
MEAN_ANOMALY   = 288.0792

EPHEMERIS_TYPE = 0
CLASSIFICATION_TYPE = U
NORAD_CAT_ID   = 41038
ELEMENT_SET_NO = 999
REV_AT_EPOCH   = 55260
BSTAR          = .35543624E-4
MEAN_MOTION_DOT = .234E-5
MEAN_MOTION_DDOT = 0

CCSDS_OMM_VERS = 2.0
CREATION_DATE  = 
ORIGINATOR     = 

OBJECT_NAME    = ASTRO-H (HITOMI)
OBJECT_ID      = 2016-012A
CENTER_NAME    = EARTH
REF_FRAME      = TEME
TIME_SYSTEM    = UTC
MEAN_ELEMENT_THEORY = SGP/SGP4

EPOCH          = 2026-02-15T11:43:22.432512
MEAN_MOTION    = 15.09842235
ECCENTRICITY   = .00098187
INCLINATION    = 30.9991
RA_OF_ASC_NODE = 139.7977
ARG_OF_PERICENTER = 109.7922
MEAN_ANOMALY   = 250.3776

EPHEMERIS_TYPE = 0
CLASSIFICATION_TYPE = U
NORAD_CAT_ID   = 41337
ELEMENT_SET_NO = 999
REV_AT_EPOCH   = 54887
BSTAR          = .24980763E-3
MEAN_MOTION_DOT = .424E-4
MEAN_MOTION_DDOT = 0

CCSDS_OMM_VERS = 2.0
CREATION_DATE  = 
ORIGINATOR     = 

OBJECT_NAME    = HXMT (HUIYAN)
OBJECT_ID      = 2017-034A
CENTER_NAME    = EARTH
REF_FRAME      = TEME
TIME_SYSTEM    = UTC
MEAN_ELEMENT_THEORY = SGP/SGP4

EPOCH          = 2026-02-15T14:14:11.474304
MEAN_MOTION    = 15.17175208
ECCENTRICITY   = .00305634
INCLINATION    = 43.0143
RA_OF_ASC_NODE = 139.4919
ARG_OF_PERICENTER = 95.1060
MEAN_ANOMALY   = 265.3277

EPHEMERIS_TYPE = 0
CLASSIFICATION_TYPE = U
NORAD_CAT_ID   = 42758
ELEMENT_SET_NO = 999
REV_AT_EPOCH   = 47918
BSTAR          = .37973586E-3
MEAN_MOTION_DOT = .7535E-4
MEAN_MOTION_DDOT = 0

CCSDS_OMM_VERS = 2.0
CREATION_DATE  = 
ORIGINATOR     = 

OBJECT_NAME    = CZ-2C R/B
OBJECT_ID      = 2018-054D
CENTER_NAME    = EARTH
REF_FRAME      = TEME
TIME_SYSTEM    = UTC
MEAN_ELEMENT_THEORY = SGP/SGP4

EPOCH          = 2026-02-15T13:32:16.093824
MEAN_MOTION    = 16.02326119
ECCENTRICITY   = .00116701
INCLINATION    = 35.1281
RA_OF_ASC_NODE = 94.4360
ARG_OF_PERICENTER = 94.0221
MEAN_ANOMALY   = 266.1855

EPHEMERIS_TYPE = 0
CLASSIFICATION_TYPE = U
NORAD_CAT_ID   = 43521
ELEMENT_SET_NO = 999
REV_AT_EPOCH   = 42534
BSTAR          = .92447101E-3
MEAN_MOTION_DOT = .573997E-2
MEAN_MOTION_DDOT = .14776701E-3

CCSDS_OMM_VERS = 2.0
CREATION_DATE  = 
ORIGINATOR     = 

OBJECT_NAME    = H-2A R/B
OBJECT_ID      = 2018-084L
CENTER_NAME    = EARTH
REF_FRAME      = TEME
TIME_SYSTEM    = UTC
MEAN_ELEMENT_THEORY = SGP/SGP4

EPOCH          = 2026-02-15T12:33:13.233312
MEAN_MOTION    = 15.40359905
ECCENTRICITY   = .0026358
INCLINATION    = 98.8755
RA_OF_ASC_NODE = 259.1898
ARG_OF_PERICENTER = 99.6519
MEAN_ANOMALY   = 260.7702

EPHEMERIS_TYPE = 0
CLASSIFICATION_TYPE = U
NORAD_CAT_ID   = 43682
ELEMENT_SET_NO = 999
REV_AT_EPOCH   = 40236
BSTAR          = .59701212E-3
MEAN_MOTION_DOT = .24337E-3
MEAN_MOTION_DDOT = 0

CCSDS_OMM_VERS = 2.0
CREATION_DATE  = 
ORIGINATOR     = 

OBJECT_NAME    = SAOCOM 1B
OBJECT_ID      = 2020-059A
CENTER_NAME    = EARTH
REF_FRAME      = TEME
TIME_SYSTEM    = UTC
MEAN_ELEMENT_THEORY = SGP/SGP4

EPOCH          = 2026-02-15T15:33:32.255136
MEAN_MOTION    = 14.82145067
ECCENTRICITY   = .00014563
INCLINATION    = 97.8871
RA_OF_ASC_NODE = 234.2306
ARG_OF_PERICENTER = 85.2007
MEAN_ANOMALY   = 274.9373

EPHEMERIS_TYPE = 0
CLASSIFICATION_TYPE = U
NORAD_CAT_ID   = 46265
ELEMENT_SET_NO = 999
REV_AT_EPOCH   = 29548
BSTAR          = .2845984E-5
MEAN_MOTION_DOT = -.3E-6
MEAN_MOTION_DDOT = 0

CCSDS_OMM_VERS = 2.0
CREATION_DATE  = 
ORIGINATOR     = 

OBJECT_NAME    = CSS (TIANHE)
OBJECT_ID      = 2021-035A
CENTER_NAME    = EARTH
REF_FRAME      = TEME
TIME_SYSTEM    = UTC
MEAN_ELEMENT_THEORY = SGP/SGP4

EPOCH          = 2026-02-15T12:04:39.858240
MEAN_MOTION    = 15.59671099
ECCENTRICITY   = .00040737
INCLINATION    = 41.4685
RA_OF_ASC_NODE = 343.0582
ARG_OF_PERICENTER = 103.9215
MEAN_ANOMALY   = 256.2076

EPHEMERIS_TYPE = 0
CLASSIFICATION_TYPE = U
NORAD_CAT_ID   = 48274
ELEMENT_SET_NO = 999
REV_AT_EPOCH   = 27414
BSTAR          = .37696445E-3
MEAN_MOTION_DOT = .30755E-3
MEAN_MOTION_DDOT = 0

CCSDS_OMM_VERS = 2.0
CREATION_DATE  = 
ORIGINATOR     = 

OBJECT_NAME    = COSMOS 2550
OBJECT_ID      = 2021-056A
CENTER_NAME    = EARTH
REF_FRAME      = TEME
TIME_SYSTEM    = UTC
MEAN_ELEMENT_THEORY = SGP/SGP4

EPOCH          = 2026-02-14T21:22:02.081568
MEAN_MOTION    = 15.33828936
ECCENTRICITY   = .00084012
INCLINATION    = 67.1422
RA_OF_ASC_NODE = 109.8973
ARG_OF_PERICENTER = 269.4635
MEAN_ANOMALY   = 90.5557

EPHEMERIS_TYPE = 0
CLASSIFICATION_TYPE = U
NORAD_CAT_ID   = 48865
ELEMENT_SET_NO = 999
REV_AT_EPOCH   = 25996
BSTAR          = .4552349E-5
MEAN_MOTION_DOT = -.42E-6
MEAN_MOTION_DDOT = 0

CCSDS_OMM_VERS = 2.0
CREATION_DATE  = 
ORIGINATOR     = 

OBJECT_NAME    = CZ-2C R/B
OBJECT_ID      = 2022-058K
CENTER_NAME    = EARTH
REF_FRAME      = TEME
TIME_SYSTEM    = UTC
MEAN_ELEMENT_THEORY = SGP/SGP4

EPOCH          = 2026-02-15T06:07:21.733824
MEAN_MOTION    = 15.52620882
ECCENTRICITY   = .0042144
INCLINATION    = 50.1883
RA_OF_ASC_NODE = 73.5485
ARG_OF_PERICENTER = 105.3301
MEAN_ANOMALY   = 255.2332

EPHEMERIS_TYPE = 0
CLASSIFICATION_TYPE = U
NORAD_CAT_ID   = 52794
ELEMENT_SET_NO = 999
REV_AT_EPOCH   = 20664
BSTAR          = .57286E-3
MEAN_MOTION_DOT = .37013E-3
MEAN_MOTION_DDOT = 0

